0 IRIDIUM 33 DEB
1 34506U 97051GX  13282.52465882  .00743670  00000-0  29121-1 0  5557
2 34506 086.4031 116.2145 0008961 009.4350 020.9147 15.23371902245712
0 IRIDIUM 33 DEB
1 34506U 97051GX  13282.80577821  .00602885  00000-0  23476-1 0  5565
2 34506 086.4038 116.0810 0008702 005.8478 125.3404 15.23678514245759
0 IRIDIUM 33 DEB
1 34506U 97051GX  13283.00108968  .00631197  00000-0  24391-1 0  5576
2 34506 086.4036 115.9860 0009119 005.8110 116.0340 15.23825592245785
0 IRIDIUM 33 DEB
1 34506U 97051GX  13283.50414464  .01232693  00000-0  50141-1 0  5595
2 34506 086.4046 115.7390 0007109 014.8040 345.3915 15.24545697245861
0 IRIDIUM 33 DEB
1 34506U 97051GX  13283.50960459  .00679440  00000-0  26020-1 0  5587
2 34506 086.4029 115.7414 0009169 003.9831 026.0614 15.24339895245853
0 IRIDIUM 33 DEB
1 34506U 97051GX  13284.05179137  .00593434  00000-0  22374-1 0  5590
2 34506 086.4025 115.4809 0010146 005.9848 117.8416 15.24800554245945
0 IRIDIUM 33 DEB
1 34506U 97051GX  13286.01849618  .00693868  00000-0  24645-1 0  5625
2 34506 086.4020 114.5323 0011235 356.0094 123.3065 15.26807964246244
0 IRIDIUM 33 DEB
1 34506U 97051GX  13286.52582926  .00616356  00000-0  21464-1 0  5631
2 34506 086.4014 114.2872 0011729 355.7581 030.7918 15.27360316246310
0 IRIDIUM 33 DEB
1 34506U 97051GX  13287.51322723  .00658259  00000-0  22186-1 0  5649
2 34506 086.3984 113.8093 0012253 352.1816 061.5593 15.28281182246472
0 IRIDIUM 33 DEB
1 34506U 97051GX  13287.78882140  .00870308  00000-0  28714-1 0  5657
2 34506 086.3998 113.6772 0012545 349.4912 139.7466 15.28677346246512
0 IRIDIUM 33 DEB
1 34506U 97051GX  13287.98926466  .01037522  00000-0  33861-1 0  5663
2 34506 086.3994 113.5801 0012506 349.2425 162.4991 15.28998700246543
0 IRIDIUM 33 DEB
1 34506U 97051GX  13288.74669670  .00913940  00000-0  28998-1 0  5671
2 34506 086.3991 113.2124 0012911 347.4666 012.6259 15.30251312246651
0 IRIDIUM 33 DEB
1 34506U 97051GX  13289.00822634  .00978230  00000-0  30490-1 0  5686
2 34506 086.3987 113.0854 0013372 347.4160 012.6753 15.30657028246692
0 IRIDIUM 33 DEB
1 34506U 97051GX  13289.46572422  .01043946  00000-0  31614-1 0  5691
2 34506 086.3982 112.8629 0013810 346.9106 013.1783 15.31415745246761
0 IRIDIUM 33 DEB
1 34506U 97051GX  13289.72704396  .01156031  00000-0  34269-1 0  5708
2 34506 086.3978 112.7357 0014147 345.6389 014.4457 15.31809298246803
0 IRIDIUM 33 DEB
1 34506U 97051GX  13290.05359846  .01072129  00000-0  31439-1 0  5714
2 34506 086.3974 112.5763 0014508 345.5569 014.5264 15.32375943246856
0 IRIDIUM 33 DEB
1 34506U 97051GX  13290.31475124  .01235566  00000-0  35850-1 0  5752
2 34506 086.3974 112.4484 0014759 345.9944 014.0895 15.32771280246897
0 IRIDIUM 33 DEB
1 34506U 97051GX  13290.70634211  .01077589  00000-0  33033-1 0  5737
2 34506 086.3975 112.2585 0012089 339.5783 020.5499 15.33736816246958
0 IRIDIUM 33 DEB
1 34506U 97051GX  13290.77159711  .01341090  00000-0  37485-1 0  5760
2 34506 086.3964 112.2264 0015563 344.6847 015.3930 15.33728447246962
0 IRIDIUM 33 DEB
1 34506U 97051GX  13290.77160615  .01068319  00000-0  32658-1 0  5740
2 34506 086.3919 112.2250 0012573 340.4682 019.6601 15.33818120246966
0 IRIDIUM 33 DEB
1 34506U 97051GX  13291.48899395  .01173369  00000-0  31419-1 0  5772
2 34506 086.3967 111.8746 0016389 343.4609 016.6106 15.35000301247071
0 IRIDIUM 33 DEB
1 34506U 97051GX  13291.74971131  .01175202  00000-0  31039-1 0  5787
2 34506 086.3961 111.7488 0016736 342.2241 017.8423 15.35426303247116
0 IRIDIUM 33 DEB
1 34506U 97051GX  13291.94519894  .01018226  00000-0  26912-1 0  5790
2 34506 086.3961 111.6528 0017224 342.0877 017.9765 15.35793781247146
0 IRIDIUM 33 DEB
1 34506U 97051GX  13292.46625045  .01252884  00000-0  31325-1 0  5800
2 34506 086.3959 111.3960 0017881 342.2675 017.7951 15.36942724247225
0 IRIDIUM 33 DEB
1 34506U 97051GX  13292.79171786  .01333058  00000-0  33027-1 0  5819
2 34506 086.3953 111.2367 0018400 342.1236 017.9366 15.37517577247271
0 IRIDIUM 33 DEB
1 34506U 97051GX  13293.05198688  .01274023  00000-0  30587-1 0  5824
2 34506 086.3946 111.1093 0019184 343.2298 016.8318 15.38138277247315
0 IRIDIUM 33 DEB
1 34506U 97051GX  13293.44221395  .01535118  00000-0  35743-1 0  5834
2 34506 086.3939 110.9168 0019630 343.0087 017.0507 15.39005732247376
0 IRIDIUM 33 DEB
1 34506U 97051GX  13293.76723446  .01839579  00000-0  41438-1 0  5840
2 34506 086.3934 110.7565 0020286 342.9828 017.0743 15.39955740247421
0 IRIDIUM 33 DEB
1 34506U 97051GX  13294.15704862  .01593481  00000-0  35182-1 0  5854
2 34506 086.3931 110.5643 0020655 343.5250 016.5330 15.40503238247484
0 IRIDIUM 33 DEB
1 34506U 97051GX  13294.48172004  .01708521  00000-0  36513-1 0  5860
2 34506 086.3930 110.4033 0020771 343.2694 016.7873 15.41262171247532
0 IRIDIUM 33 DEB
1 34506U 97051GX  13294.74133325  .01953936  00000-0  40959-1 0  5874
2 34506 086.3924 110.2749 0021332 342.4612 017.5904 15.41935312247574
0 IRIDIUM 33 DEB
1 34506U 97051GX  13294.93597569  .01679640  00000-0  34620-1 0  5885
2 34506 086.3929 110.1782 0021910 343.1513 016.9012 15.42398285247605
0 IRIDIUM 33 DEB
1 34506U 97051GX  13295.45472583  .02217087  00000-0  42928-1 0  5896
2 34506 086.3908 109.9193 0022769 343.0535 016.9957 15.43857931247685
0 IRIDIUM 33 DEB
1 34506U 97051GX  13295.77869271  .02104672  00000-0  39752-1 0  5903
2 34506 086.3900 109.7597 0023616 342.2017 017.8409 15.44768120247731
0 IRIDIUM 33 DEB
1 34506U 97051GX  13296.16718734  .02280271  00000-0  40716-1 0  5917
2 34506 086.3894 109.5663 0024098 342.3633 017.6785 15.46132918247798
